FLOCK 3P-12             
1 41972U 17008AA  20060.87889908  .00001552  00000-0  63034-4 0  9997
2 41972  97.3772 129.9675 0006714 331.2035  28.8832 15.26056763168944
FLOCK 3P-9              
1 41973U 17008AB  20060.86273240  .00001555  00000-0  62570-4 0  9990
2 41973  97.3770 130.0098 0006636 326.9369  33.1454 15.26384642168948
FLOCK 3P-10             
1 41974U 17008AC  20060.86602109  .00002184  00000-0  85177-4 0  9998
2 41974  97.3776 130.4942 0006085 327.1701  32.9159 15.26998088168863
FLOCK 3P-11             
1 41975U 17008AD  20061.14899963  .00001811  00000-0  73051-4 0  9991
2 41975  97.3763 130.2280 0006863 326.7748  33.3059 15.26085173168757
FLOCK 3P-60             
1 41976U 17008AE  20060.86059090  .00001636  00000-0  66329-4 0  9994
2 41976  97.3780 130.0714 0006512 331.7800  28.3084 15.26058361168192
FLOCK 3P-58             
1 41977U 17008AF  20061.14424728  .00001671  00000-0  67696-4 0  9998
2 41977  97.3768 130.2406 0006665 328.9919  31.0925 15.26042505169062
FLOCK 3P-57             
1 41978U 17008AG  20061.12952987  .00001201  00000-0  49403-4 0  9995
2 41978  97.3764 130.2574 0006626 326.1565  33.9250 15.26077800168909
FLOCK 3P-75             
1 41979U 17008AH  20060.84999541  .00002140  00000-0  85113-4 0  9992
2 41979  97.3799 130.3787 0006803 331.9186  28.1685 15.26356045169017
FLOCK 3P-70             
1 41980U 17008AJ  20060.66878237  .00001204  00000-0  49546-4 0  9992
2 41980  97.3799 130.1754 0006750 333.2333  26.8556 15.26048276168825
FLOCK 3P-73             
1 41981U 17008AK  20060.86225518  .00003076  00000-0  11689-3 0  9998
2 41981  97.3795 130.9810 0006567 328.9481  31.1370 15.27543848169037
FLOCK 3P-88             
1 41982U 17008AL  20060.63228418  .00002114  00000-0  81822-4 0  9995
2 41982  97.3797 130.7828 0006396 327.6224  32.4622 15.27289471167972
FLOCK 3P-85             
1 41983U 17008AM  20061.12710494  .00002300  00000-0  89350-4 0  9992
2 41983  97.3793 131.2107 0006441 331.6225  28.4662 15.27074808168945
FLOCK 3P-79             
1 41984U 17008AN  20060.85752083  .00001706  00000-0  69072-4 0  9990
2 41984  97.3796 130.3698 0006660 334.9139  25.1775 15.26046306168868
FLOCK 3P-86             
1 41985U 17008AP  20061.18710534  .00001775  00000-0  71732-4 0  9995
2 41985  97.3800 130.7006 0006500 333.1800  26.9101 15.26053840168909
FLOCK 3P-36             
1 41986U 17008AQ  20060.90195279  .00002199  00000-0  87350-4 0  9992
2 41986  97.3780 130.2131 0006384 331.1720  28.9165 15.26376604168357
FLOCK 3P-30             
1 41987U 17008AR  20061.16539441  .00001951  00000-0  78195-4 0  9997
2 41987  97.3781 130.4561 0006103 333.0289  27.0631 15.26212780168866
FLOCK 3P-34             
1 41988U 17008AS  20061.12444951  .00001520  00000-0  61836-4 0  9991
2 41988  97.3778 130.3004 0006211 328.3437  31.7427 15.26038033168385
FLOCK 3P-35             
1 41989U 17008AT  20060.86708076  .00001302  00000-0  52620-4 0  9992
2 41989  97.3774 130.3266 0006031 327.3434  32.7431 15.26517289168367
FLOCK 3P-33             
1 41990U 17008AU  20060.87798450  .00000878  00000-0  37152-4 0  9990
2 41990  97.3774 130.0180 0006220 330.8534  29.2356 15.25811568168342
LEMUR-2-JOBANPUTRA      
1 41991U 17008AV  20060.87533268  .00001198  00000-0  51200-4 0  9991
2 41991  97.3705 128.1210 0006696 339.6194  20.4776 15.24760391168249
LEMUR-2-SPIRE-MINIONS   
1 41992U 17008AW  20061.17725670  .00001556  00000-0  63454-4 0  9998
2 41992  97.3731 129.6805 0006200 334.5970  25.4963 15.25929826168369
LEMUR-2-SATCHMO         
1 41993U 17008AX  20060.82034049  .00001086  00000-0  46440-4 0  9997
2 41993  97.3707 128.3358 0006565 338.6990  21.3973 15.24939990168259
LEMUR-2-SMITA-SHARAD    
1 41994U 17008AY  20060.88170560  .00001603  00000-0  65357-4 0  9996
2 41994  97.3728 129.2719 0006269 334.4270  25.6658 15.25886455168312
LEMUR-2-RDEATON         
1 41995U 17008AZ  20060.84589853  .00001097  00000-0  46796-4 0  9995
2 41995  97.3709 128.4802 0007934 351.1573   8.9524 15.25005224168940
LEMUR-2-TACHIKOMA       
1 41996U 17008BA  20061.16552555  .00001548  00000-0  63438-4 0  9994
2 41996  97.3746 129.6743 0007571 348.5579  11.5486 15.25770218168255
LEMUR-2-NOGUECORREIG    
1 41997U 17008BB  20060.85424489  .00001604  00000-0  65188-4 0  9991
2 41997  97.3739 129.6075 0007680 348.7997  11.3069 15.25994090168311
LEMUR-2-MIA-GRACE       
1 41998U 17008BC  20060.84289104  .00001125  00000-0  48066-4 0  9998
2 41998  97.3707 128.3130 0007887 352.1868   7.9246 15.24894547168177
BGUSAT                  
1 41999U 17008BD  20061.17170685  .00001981  00000-0  77378-4 0  9997
2 41999  97.3775 131.0200 0007208 344.7023  15.3997 15.27050603168423
DIDO-2                  
1 42000U 17008BE  20061.13125504  .00000804  00000-0  35777-4 0  9997
2 42000  97.3686 127.9540 0008060 353.4861   6.6270 15.24298242168262
FLOCK 3P-49             
1 42001U 17008BF  20060.76610437  .00001488  00000-0  60454-4 0  9999
2 42001  97.3771 130.0217 0007263 349.5150  10.5936 15.26110482168854
FLOCK 3P-67             
1 42002U 17008BG  20060.83836603  .00002304  00000-0  88262-4 0  9998
2 42002  97.3769 130.9379 0006650 344.7528  15.3510 15.27536112169085
FLOCK 3P-68             
1 42003U 17008BH  20060.85096801  .00001713  00000-0  69349-4 0  9997
2 42003  97.3765 130.0142 0007279 347.5658  12.5400 15.26036401168669
FLOCK 3P-41             
1 42004U 17008BJ  20060.69595135  .00002201  00000-0  84430-4 0  9995
2 42004  97.3763 130.6344 0006631 346.5593  13.5469 15.27532417168896
FLOCK 3P-45             
1 42005U 17008BK  20060.88289078  .00002345  00000-0  89614-4 0  9991
2 42005  97.3776 131.0674 0006647 347.4271  12.6802 15.27593793169090
FLOCK 3P-48             
1 42006U 17008BL  20060.82687950  .00002874  00000-0  11324-3 0  9996
2 42006  97.3770 130.1421 0006757 351.4904   8.6219 15.26383126168806
FLOCK 3P-43             
1 42007U 17008BM  20060.89246827  .00002169  00000-0  85186-4 0  9993
2 42007  97.3789 130.3832 0006658 350.1977   9.9131 15.26760334169045
FLOCK 3P-42             
1 42008U 17008BN  20061.16699428  .00002096  00000-0  84091-4 0  9997
2 42008  97.3767 130.3442 0007037 348.7484  11.3596 15.26092391168993
FLOCK 3P-61             
1 42009U 17008BP  20060.70698348  .00001635  00000-0  66359-4 0  9992
2 42009  97.3770 129.9248 0007082 352.8510   7.2626 15.26015471168972
FLOCK 3P-40             
1 42010U 17008BQ  20060.83345611  .00001610  00000-0  65371-4 0  9996
2 42010  97.3761 129.9582 0007058 355.7217   4.3960 15.26021747168257
FLOCK 3P-16             
1 42011U 17008BR  20061.17112465  .00002251  00000-0  89800-4 0  9999
2 42011  97.3765 130.2675 0006590 353.9199   6.1959 15.26207552168246
FLOCK 3P-14             
1 42012U 17008BS  20061.15982610  .00001136  00000-0  46936-4 0  9999
2 42012  97.3789 130.6346 0006726 356.5254   3.5936 15.26022478168871
FLOCK 3P-53             
1 42013U 17008BT  20060.86999357  .00002386  00000-0  93065-4 0  9996
2 42013  97.3767 130.3743 0006572 354.9935   5.1237 15.26899394168841
FLOCK 3P-54             
1 42014U 17008BU  20060.82873557  .00001381  00000-0  56420-4 0  9994
2 42014  97.3773 130.0099 0006665 357.6144   2.5062 15.26061644169022
PEASSS                  
1 42015U 17008BV  20060.66241782  .00001093  00000-0  46161-4 0  9997
2 42015  97.3705 128.8821 0006121   3.5995 356.5286 15.25372127168764
AL-FARABI 1             
1 42016U 17008BW  20061.13452150  .00001420  00000-0  57793-4 0  9991
2 42016  97.3729 130.2214 0005899   1.0104 359.1145 15.26145657169008
NAYIF-1 (EO-88)         
1 42017U 17008BX  20060.26370193  .00001318  00000-0  53781-4 0  9990
2 42017  97.3726 129.3740 0006011   3.9498 356.1787 15.26180773168896
FLOCK 3P-23             
1 42018U 17008BY  20061.15537512  .00001451  00000-0  59198-4 0  9996
2 42018  97.3763 130.1005 0006970 324.5785  35.4990 15.26024128167834
FLOCK 3P-76             
1 42019U 17008BZ  20060.86500249  .00001207  00000-0  49715-4 0  9994
2 42019  97.3805 130.4201 0006956 333.4591  26.6290 15.26026800168858
FLOCK 3P-69             
1 42020U 17008CA  20060.87573460  .00002371  00000-0  93473-4 0  9995
2 42020  97.3796 130.5333 0006611 330.1717  29.9144 15.26547273167752
FLOCK 3P-84             
1 42021U 17008CB  20060.71069098  .00001937  00000-0  77253-4 0  9991
2 42021  97.3791 130.2259 0006860 332.2320  27.8551 15.26387759168842
FLOCK 3P-59             
1 42022U 17008CC  20060.82504005  .00002332  00000-0  89412-4 0  9996
2 42022  97.3768 130.7979 0006122 329.0855  31.0023 15.27491758167935
FLOCK 3P-32             
1 42023U 17008CD  20060.66688135  .00001385  00000-0  56501-4 0  9996
2 42023  97.3768 129.8067 0006591 329.3729  30.7124 15.26108360168994
FLOCK 3P-71             
1 42024U 17008CE  20061.16141740  .00002395  00000-0  91454-4 0  9997
2 42024  97.3773 131.3398 0006491 330.0004  30.0862 15.27608060167994
FLOCK 3P-77             
1 42025U 17008CF  20061.18132476  .00001139  00000-0  47013-4 0  9993
2 42025  97.3792 130.7048 0006769 332.2325  27.8551 15.26064464168914
FLOCK 3P-80             
1 42026U 17008CG  20060.90109938  .00001153  00000-0  47621-4 0  9991
2 42026  97.3794 130.4483 0006489 335.1012  24.9913 15.26011652167012
FLOCK 3P-66             
1 42027U 17008CH  20060.84988192  .00001506  00000-0  61294-4 0  9996
2 42027  97.3771 130.0591 0007214 347.3751  12.7306 15.26034988168970
FLOCK 3P-65             
1 42028U 17008CJ  20060.71743067  .00001199  00000-0  49368-4 0  9999
2 42028  97.3778 129.9574 0007049 348.5522  11.5555 15.26029828168858
FLOCK 3P-50             
1 42029U 17008CK  20061.17249417  .00001557  00000-0  63242-4 0  9996
2 42029  97.3783 130.4575 0006975 348.8851  11.2232 15.26048831168245
FLOCK 3P-52             
1 42030U 17008CL  20061.17472685  .00002140  00000-0  85944-4 0  9995
2 42030  97.3779 130.4025 0006981 348.5398  11.5680 15.26025050169016
